{"fetched_at":"2026-07-23T07:05:35.427Z","source":"https://celestrak.org/NORAD/elements/gp.php?NAME=CENTAURI&FORMAT=JSON","constellation":"myriota","records":[{"OBJECT_NAME":"CENTAURI-1","OBJECT_ID":"2018-099BD","EPOCH":"2026-07-22T08:59:14.151840","CLASSIFICATION_TYPE":"U","MEAN_MOTION":15.16672534,"ECCENTRICITY":0.00136407,"INCLINATION":97.4201,"RA_OF_ASC_NODE":254.3412,"ARG_OF_PERICENTER":198.712,"MEAN_ANOMALY":161.3614,"EPHEMERIS_TYPE":0,"NORAD_CAT_ID":43809,"ELEMENT_SET_NO":999,"REV_AT_EPOCH":41783,"BSTAR":0.00026484893,"MEAN_MOTION_DOT":0.0000513,"MEAN_MOTION_DDOT":0},{"OBJECT_NAME":"CENTAURI-6","OBJECT_ID":"2024-066K","EPOCH":"2026-07-22T16:33:54.522432","CLASSIFICATION_TYPE":"U","MEAN_MOTION":15.06085694,"ECCENTRICITY":0.0001833,"INCLINATION":45.6065,"RA_OF_ASC_NODE":69.0385,"ARG_OF_PERICENTER":263.4896,"MEAN_ANOMALY":96.5779,"EPHEMERIS_TYPE":0,"NORAD_CAT_ID":59451,"ELEMENT_SET_NO":999,"REV_AT_EPOCH":12547,"BSTAR":0.00036008573,"MEAN_MOTION_DOT":0.00005099,"MEAN_MOTION_DDOT":0},{"OBJECT_NAME":"CENTAURI-7","OBJECT_ID":"2025-009DD","EPOCH":"2026-07-22T15:59:24.571968","CLASSIFICATION_TYPE":"U","MEAN_MOTION":14.97999443,"ECCENTRICITY":0.00021911,"INCLINATION":97.7082,"RA_OF_ASC_NODE":283.4941,"ARG_OF_PERICENTER":93.8104,"MEAN_ANOMALY":266.3369,"EPHEMERIS_TYPE":0,"NORAD_CAT_ID":62708,"ELEMENT_SET_NO":999,"REV_AT_EPOCH":8277,"BSTAR":0.00019181315,"MEAN_MOTION_DOT":0.00002206,"MEAN_MOTION_DDOT":0},{"OBJECT_NAME":"CENTAURI-8","OBJECT_ID":"2025-009DK","EPOCH":"2026-07-22T13:28:40.315008","CLASSIFICATION_TYPE":"U","MEAN_MOTION":14.97956445,"ECCENTRICITY":0.00026278,"INCLINATION":97.7029,"RA_OF_ASC_NODE":283.2055,"ARG_OF_PERICENTER":74.8901,"MEAN_ANOMALY":285.2612,"EPHEMERIS_TYPE":0,"NORAD_CAT_ID":62714,"ELEMENT_SET_NO":999,"REV_AT_EPOCH":8277,"BSTAR":0.00027349344,"MEAN_MOTION_DOT":0.00003167,"MEAN_MOTION_DDOT":0}]}
