{"epoch":1784799577,"count":18318,"objects":[{"id":"43809","name":"CENTAURI-1","type":"PAYLOAD","l1":"1 43809U 18099BD  26203.37446935  .00005130  00000-0  26485-3 0  9992","l2":"2 43809  97.4201 254.3412 0013641 198.7120 161.3614 15.16672534417838"},{"id":"59451","name":"CENTAURI-6","type":"PAYLOAD","l1":"1 59451U 24066K   26203.69021438  .00005099  00000-0  36009-3 0  9992","l2":"2 59451  45.6065  69.0385 0001833 263.4896  96.5779 15.06085694125472"},{"id":"62708","name":"CENTAURI-7","type":"PAYLOAD","l1":"1 62708U 25009DD  26203.66625662  .00002206  00000-0  19181-3 0  9994","l2":"2 62708  97.7082 283.4941 0002191  93.8104 266.3369 14.97999443 82775"},{"id":"62714","name":"CENTAURI-8","type":"PAYLOAD","l1":"1 62714U 25009DK  26203.56157772  .00003167  00000-0  27349-3 0  9994","l2":"2 62714  97.7029 283.2055 0002628  74.8901 285.2612 14.97956445 82772"}]}